STARLINK-4542           
1 53435U 22097AZ  26170.58335648  .00039511  00000+0  22388-2 0  9991
2 53435  53.1600   6.3588 0002052  69.7123 142.8477 15.12648715  5798
STARLINK-4527           
1 53436U 22097BA  26170.27056555  .00080613  00000+0  49385-2 0  9990
2 53436  53.1605   7.6726 0001304 108.6001 251.5132 15.09479310214123
STARLINK-4526           
1 53438U 22097BC  26170.58335648  .00039076  00000+0  22084-2 0  9993
2 53438  53.1590   6.2023 0001678  99.0501 194.6334 15.12748357  5791
STARLINK-4519           
1 53439U 22097BD  26170.58335648  .00033293  00000+0  19405-2 0  9992
2 53439  53.1597   6.3467 0002323 104.0359 113.5860 15.11714025  5796
DONGPO 07               
1 53444U 22098A   26170.62353424  .00081192  00000+0  61345-3 0  9998
2 53444  97.5556 301.6594 0002339 306.5423  53.5624 15.72198610215134
JILIN-1 GAOFEN 03D09    
1 53445U 22098B   26170.63730061  .00062242  00000+0  59189-3 0  9994
2 53445  97.5603 300.4967 0001555 342.0468  18.0737 15.66662314215010
2022-098C               
1 53446U 22098C   26170.58361885  .00069259  00000+0  63626-3 0  9999
2 53446  97.5638 301.1375 0000826  10.0094 350.1182 15.67496444215022
JILIN-1 GAOFEN 03D43    
1 53448U 22098E   26170.60484030  .00071850  00000+0  60224-3 0  9993
2 53448  97.5590 301.4883 0001422 317.6966  42.4186 15.69736625215075
DONGPO 05               
1 53449U 22098F   26170.64085260  .00135572  00000+0  69551-3 0  9994
2 53449  97.5489 303.0911 0002768 249.2088 110.8883 15.80876656215258
DONGPO 02               
1 53452U 22098J   26170.02049862  .00092374  00000+0  62027-3 0  9991
2 53452  97.5528 301.3682 0002554 266.3301  93.7672 15.74932994215080
DONGPO 01               
1 53453U 22098K   26170.58625000  .00084573  00000+0  62219-3 0  9992
2 53453  97.5592 302.5043 0002035 225.9095 134.2001 15.72820197215133
STARLINK-4415           
1 53465U 22099A   26170.56948622  .00000551  00000+0  42105-4 0  9999
2 53465  97.3387 290.5664 0001064 114.8739 245.2599 15.05653028211362
STARLINK-4398           
1 53466U 22099B   26170.58335648  .00230618  00000+0  27018-2 0  9993
2 53466  97.6032 293.9480 0001083  82.3568 253.1351 15.60758595  5828
STARLINK-4394           
1 53467U 22099C   26170.58335648  .00232365  00000+0  26788-2 0  9998
2 53467  97.6028 295.2874 0001085  81.6494  52.1960 15.61174682  5832
STARLINK-4400           
1 53468U 22099D   26170.57091216 -.00001742  00000+0 -11682-3 0  9991
2 53468  97.3388 289.4829 0000666 177.1598 182.9633 15.05651544211309
STARLINK-4399           
1 53469U 22099E   26170.61933142  .00000632  00000+0  47730-4 0  9999
2 53469  97.3398 290.6374 0001416 108.6901 251.4480 15.05653542211381
STARLINK-4393           
1 53470U 22099F   26170.32168416 -.00000179  00000+0 -84535-5 0  9996
2 53470  97.3385 289.2104 0001437 141.5887 218.5443 15.05649229211263
STARLINK-4316           
1 53471U 22099G   26170.57225142  .00000691  00000+0  51837-4 0  9999
2 53471  97.3401 290.5353 0001140 121.1742 238.9597 15.05652364211371
STARLINK-4447           
1 53472U 22099H   26170.32722422 -.00000004  00000+0  36509-5 0  9995
2 53472  97.3393 289.1930 0001198 138.2734 221.8585 15.05653011211266
STARLINK-4383           
1 53473U 22099J   26170.58335648  .00070190  00000+0  17772-2 0  9994
2 53473  97.6008 293.1855 0001394  85.0651 125.4910 15.39484293  5789
STARLINK-4445           
1 53474U 22099K   26170.55426978  .00003890  00000+0  27309-3 0  9990
2 53474  97.3452 289.4728 0002655 116.0922 244.0579 15.05694678211303
STARLINK-4389           
1 53475U 22099L   26170.58335648  .00132553  00000+0  16001-2 0  9992
2 53475  97.6033 294.1444 0001177  68.0294  74.2973 15.60300674  5837
STARLINK-4378           
1 53476U 22099M   26170.60826059 -.00018599  00000+0 -13139-2 0  9991
2 53476  97.3631 289.5830 0001546 103.5269 256.6131 15.04920755211313
STARLINK-4412           
1 53477U 22099N   26170.58335648  .00154333  00000+0  18210-2 0  9998
2 53477  97.6033 294.0967 0000956  69.4514 345.4981 15.60826600  5847
STARLINK-4433           
1 53478U 22099P   26170.46566924  .00000598  00000+0  45374-4 0  9995
2 53478  97.3381 289.2982 0001132 174.0821 186.0420 15.05654392211285
STARLINK-4436           
1 53479U 22099Q   26170.58333733  .00000260  00000+0  21941-4 0  9999
2 53479  97.3386 290.6491 0001350  93.5607 266.5775 15.05652593211380
STARLINK-4442           
1 53480U 22099R   26170.58335648  .00117859  00000+0  22226-2 0  9996
2 53480  97.6033 294.4815 0001244  90.9846 194.9957 15.48050011  5868
STARLINK-4302           
1 53481U 22099S   26170.58335648  .00259741  00000+0  32622-2 0  9995
2 53481  97.6056 293.9225 0000865  74.9322 286.4672 15.58821493  5875
STARLINK-4360           
1 53482U 22099T   26170.34381811  .00003084  00000+0  21750-3 0  9991
2 53482  97.3440 289.2917 0001425 156.7871 203.3421 15.05673819211279
STARLINK-4426           
1 53484U 22099V   26170.28981066 -.00000888  00000+0 -57570-4 0  9995
2 53484  97.3402 290.2724 0001241 114.1910 245.9447 15.05657856211335
