OBJECT_NAME,OBJECT_ID,EPOCH,MEAN_MOTION,ECCENTRICITY,INCLINATION,RA_OF_ASC_NODE,ARG_OF_PERICENTER,MEAN_ANOMALY,EPHEMERIS_TYPE,CLASSIFICATION_TYPE,NORAD_CAT_ID,ELEMENT_SET_NO,REV_AT_EPOCH,BSTAR,MEAN_MOTION_DOT,MEAN_MOTION_DDOT
STARLINK-4542,2022-097AZ,2026-06-19T14:00:01.999872,15.12648715,.00020529,53.1600,6.3588,69.7123,142.8477,0,U,53435,999,579,.22388092E-2,.39511E-3,0
STARLINK-4527,2022-097BA,2026-06-19T06:29:36.863520,15.09479310,.00013049,53.1605,7.6726,108.6001,251.5132,0,U,53436,999,21412,.49384604E-2,.80613E-3,0
STARLINK-4526,2022-097BC,2026-06-19T14:00:01.999872,15.12748357,.0001678,53.1590,6.2023,99.0501,194.6334,0,U,53438,999,579,.22083883E-2,.39076E-3,0
STARLINK-4519,2022-097BD,2026-06-19T14:00:01.999872,15.11714025,.00023239,53.1597,6.3467,104.0359,113.5860,0,U,53439,999,579,.1940466E-2,.33293E-3,0
DONGPO 07,2022-098A,2026-06-19T14:57:53.358336,15.72198610,.00023394,97.5556,301.6594,306.5423,53.5624,0,U,53444,999,21513,.6134532E-3,.81192E-3,0
JILIN-1 GAOFEN 03D09,2022-098B,2026-06-19T15:17:42.772704,15.66662314,.00015554,97.5603,300.4967,342.0468,18.0737,0,U,53445,999,21501,.59189187E-3,.62242E-3,0
2022-098C,2022-098C,2026-06-19T14:00:24.668640,15.67496444,.0000826,97.5638,301.1375,10.0094,350.1182,0,U,53446,999,21502,.63625547E-3,.69259E-3,0
JILIN-1 GAOFEN 03D43,2022-098E,2026-06-19T14:30:58.201920,15.69736625,.00014226,97.5590,301.4883,317.6966,42.4186,0,U,53448,999,21507,.60224482E-3,.7185E-3,0
DONGPO 05,2022-098F,2026-06-19T15:22:49.664640,15.80876656,.00027689,97.5489,303.0911,249.2088,110.8883,0,U,53449,999,21525,.69550674E-3,.135572E-2,0
DONGPO 02,2022-098J,2026-06-19T00:29:31.080768,15.74932994,.00025541,97.5528,301.3682,266.3301,93.7672,0,U,53452,999,21508,.62026883E-3,.92374E-3,0
DONGPO 01,2022-098K,2026-06-19T14:04:12.000000,15.72820197,.00020355,97.5592,302.5043,225.9095,134.2001,0,U,53453,999,21513,.62219277E-3,.84573E-3,0
STARLINK-4415,2022-099A,2026-06-19T13:40:03.609408,15.05653028,.00010648,97.3387,290.5664,114.8739,245.2599,0,U,53465,999,21136,.42104841E-4,.551E-5,0
STARLINK-4398,2022-099B,2026-06-19T14:00:01.999872,15.60758595,.00010833,97.6032,293.9480,82.3568,253.1351,0,U,53466,999,582,.27018318E-2,.230618E-2,0
STARLINK-4394,2022-099C,2026-06-19T14:00:01.999872,15.61174682,.00010858,97.6028,295.2874,81.6494,52.1960,0,U,53467,999,583,.26788121E-2,.232365E-2,0
STARLINK-4400,2022-099D,2026-06-19T13:42:06.810624,15.05651544,.00006667,97.3388,289.4829,177.1598,182.9633,0,U,53468,999,21130,-.11681711E-3,-.1742E-4,0
STARLINK-4399,2022-099E,2026-06-19T14:51:50.234688,15.05653542,.00014161,97.3398,290.6374,108.6901,251.4480,0,U,53469,999,21138,.47730287E-4,.632E-5,0
STARLINK-4393,2022-099F,2026-06-19T07:43:13.511424,15.05649229,.00014379,97.3385,289.2104,141.5887,218.5443,0,U,53470,999,21126,-.8453458E-5,-.179E-5,0
STARLINK-4316,2022-099G,2026-06-19T13:44:02.522688,15.05652364,.00011408,97.3401,290.5353,121.1742,238.9597,0,U,53471,999,21137,.51837276E-4,.691E-5,0
STARLINK-4447,2022-099H,2026-06-19T07:51:12.172608,15.05653011,.00011985,97.3393,289.1930,138.2734,221.8585,0,U,53472,999,21126,.3650865E-5,-.4E-7,0
STARLINK-4383,2022-099J,2026-06-19T14:00:01.999872,15.39484293,.00013948,97.6008,293.1855,85.0651,125.4910,0,U,53473,999,578,.17772475E-2,.7019E-3,0
STARLINK-4445,2022-099K,2026-06-19T13:18:08.908992,15.05694678,.00026555,97.3452,289.4728,116.0922,244.0579,0,U,53474,999,21130,.273088E-3,.389E-4,0
STARLINK-4389,2022-099L,2026-06-19T14:00:01.999872,15.60300674,.00011772,97.6033,294.1444,68.0294,74.2973,0,U,53475,999,583,.16001309E-2,.132553E-2,0
STARLINK-4378,2022-099M,2026-06-19T14:35:53.714976,15.04920755,.00015467,97.3631,289.5830,103.5269,256.6131,0,U,53476,999,21131,-.13138662E-2,-.18599E-3,0
STARLINK-4412,2022-099N,2026-06-19T14:00:01.999872,15.60826600,.00009563,97.6033,294.0967,69.4514,345.4981,0,U,53477,999,584,.18209896E-2,.154333E-2,0
STARLINK-4433,2022-099P,2026-06-19T11:10:33.822336,15.05654392,.00011328,97.3381,289.2982,174.0821,186.0420,0,U,53478,999,21128,.45373666E-4,.598E-5,0
STARLINK-4436,2022-099Q,2026-06-19T14:00:00.345312,15.05652593,.00013509,97.3386,290.6491,93.5607,266.5775,0,U,53479,999,21138,.21940922E-4,.26E-5,0
STARLINK-4442,2022-099R,2026-06-19T14:00:01.999872,15.48050011,.00012449,97.6033,294.4815,90.9846,194.9957,0,U,53480,999,586,.22226387E-2,.117859E-2,0
STARLINK-4302,2022-099S,2026-06-19T14:00:01.999872,15.58821493,.00008658,97.6056,293.9225,74.9322,286.4672,0,U,53481,999,587,.32621676E-2,.259741E-2,0
STARLINK-4360,2022-099T,2026-06-19T08:15:05.884704,15.05673819,.00014252,97.3440,289.2917,156.7871,203.3421,0,U,53482,999,21127,.21749624E-3,.3084E-4,0
STARLINK-4426,2022-099V,2026-06-19T06:57:19.641024,15.05657856,.00012414,97.3402,290.2724,114.1910,245.9447,0,U,53484,999,21133,-.57569608E-4,-.888E-5,0
